COSMOS 2361 [-]         
1 25590U 98076A   22350.77298928  .00000057  00000+0  44723-4 0  9990
2 25590  82.9351  71.3957 0032660  63.0481  54.5654 13.73037094201258
COSMOS 2378 [-]         
1 26818U 01023A   22351.07318369  .00000062  00000+0  49814-4 0  9998
2 26818  82.9282  88.8834 0033049   8.8454 164.4656 13.73981060 79382
COSMOS 2389 [-]         
1 27436U 02026A   22351.14912623  .00000058  00000+0  44719-4 0  9994
2 27436  82.9516  34.8109 0045465 224.6933 158.3058 13.74989935 31533
COSMOS 2398 [-]         
1 27818U 03023A   22350.81236787  .00000053  00000+0  42050-4 0  9990
2 27818  82.9481 357.2464 0029927 265.2809 268.4285 13.72225188978392
COSMOS 2407 [+]         
1 28380U 04028A   22350.87394670  .00000070  00000+0  55895-4 0  9993
2 28380  82.9601 301.3638 0038124 226.1075 194.1999 13.76129545924048
COSMOS 2414 [+]         
1 28521U 05002A   22350.81848742  .00000076  00000+0  50844-4 0  9996
2 28521  82.9496 290.3471 0040784  16.1233 344.1217 13.87675489906536
COSMOS 2429 [-]         
1 32052U 07038A   22350.73480140  .00000035  00000+0  21030-4 0  9996
2 32052  82.9814  68.0131 0038007 203.4458 156.4967 13.74977895765959
COSMOS 2454 [-]         
1 35635U 09039A   22350.90217948  .00000083  00000+0  54925-4 0  9994
2 35635  82.9565 276.2894 0018465 320.0901 109.0705 13.89704779679847
COSMOS 2463 [+]         
1 36519U 10017A   22350.90638604  .00000067  00000+0  57407-4 0  9990
2 36519  82.9604 108.8080 0037408  77.4500  42.6533 13.71487637632703
